{"type":"Topology","bbox":[-73.990238,-33.751358,-32.390875,5.270972],"objects":{"states":{"type":"GeometryCollection","geometries":[{"type":"MultiPolygon","arcs":[[[0,1,2]]],"properties":{"id":1,"name":"Acre","sigla":"AC","regiao_id":"3","codigo_ibg":"12","cartodb_id":1,"created_at":"2015-02-09T16:46:01Z","updated_at":"2015-02-09T16:46:01Z"}},{"type":"MultiPolygon","arcs":[[[3,4,5,6],[7]]],"properties":{"id":2,"name":"Alagoas","sigla":"AL","regiao_id":"4","codigo_ibg":"27","cartodb_id":2,"created_at":"2015-02-09T16:46:01Z","updated_at":"2015-02-09T16:46:01Z"}},{"type":"MultiPolygon","arcs":[[[8,9,10,11,-3,12]]],"properties":{"id":3,"name":"Amazonas","sigla":"AM","regiao_id":"3","codigo_ibg":"13","cartodb_id":3,"created_at":"2015-02-09T16:46:01Z","updated_at":"2015-02-09T16:46:01Z"}},{"type":"MultiPolygon","arcs":[[[13,14]]],"properties":{"id":4,"name":"Amapá","sigla":"AP","regiao_id":"3","codigo_ibg":"16","cartodb_id":4,"created_at":"2015-02-09T16:46:01Z","updated_at":"2015-02-09T16:46:01Z"}},{"type":"MultiPolygon","arcs":[[[-6,15,16,17,18,19,20,21,22],[23]]],"properties":{"id":5,"name":"Bahia","sigla":"BA","regiao_id":"4","codigo_ibg":"29","cartodb_id":5,"created_at":"2015-02-09T16:46:01Z","updated_at":"2015-02-09T16:46:01Z"}},{"type":"MultiPolygon","arcs":[[[24,25,26,27,28,29]],[[30]]],"properties":{"id":6,"name":"Ceará","sigla":"CE","regiao_id":"4","codigo_ibg":"23","cartodb_id":6,"created_at":"2015-02-09T16:46:01Z","updated_at":"2015-02-09T16:46:01Z"}},{"type":"MultiPolygon","arcs":[[[31,32,33,-18,34,35],[36],[37]],[[38]],[[39]]],"properties":{"id":8,"name":"Espírito Santo","sigla":"ES","regiao_id":"2","codigo_ibg":"32","cartodb_id":8,"created_at":"2015-02-09T16:46:01Z","updated_at":"2015-02-09T16:46:01Z"}},{"type":"MultiPolygon","arcs":[[[-20,40,41,42,43,44,45]]],"properties":{"id":9,"name":"Goiás","sigla":"GO","regiao_id":"5","codigo_ibg":"52","cartodb_id":9,"created_at":"2015-02-09T16:46:01Z","updated_at":"2015-02-09T16:46:01Z"}},{"type":"MultiPolygon","arcs":[[[46,47,48,49,50,51,52,53,54,55,56,57,58,59,60,61],[62],[63],[64],[65],[66],[67],[68],[69],[70],[71],[72],[73],[74],[75],[76],[77],[78]],[[79],[80],[81]],[[82,83],[84]],[[85]],[[86]],[[87]],[[88]],[[89]],[[90]],[[91]],[[92]],[[93,94]],[[95]],[[96,97]],[[98]],[[99]],[[100]],[[101]],[[102]],[[103]],[[104]],[[105]],[[106]],[[107]],[[108]],[[109]],[[110]],[[111]],[[112]],[[113]],[[114]],[[115]],[[116]],[[117]],[[118]],[[119]],[[120]],[[121]],[[122]],[[123]],[[124]],[[125]],[[126]],[[127]],[[128]],[[129]],[[130]],[[131]],[[132]],[[133]],[[134]],[[135]],[[136]]],"properties":{"id":10,"name":"Maranhão","sigla":"MA","regiao_id":"4","codigo_ibg":"21","cartodb_id":10,"created_at":"2015-02-09T16:46:01Z","updated_at":"2015-02-09T16:46:01Z"}},{"type":"MultiPolygon","arcs":[[[-34,137,138,139,-43,140,-41,-19]]],"properties":{"id":11,"name":"Minas Gerais","sigla":"MG","regiao_id":"2","codigo_ibg":"31","cartodb_id":11,"created_at":"2015-02-09T16:46:01Z","updated_at":"2015-02-09T16:46:01Z"}},{"type":"MultiPolygon","arcs":[[[141,-44,-140,142,143,144,145]],[[146]]],"properties":{"id":12,"name":"Mato Grosso do Sul","sigla":"MS","regiao_id":"5","codigo_ibg":"50","cartodb_id":12,"created_at":"2015-02-09T16:46:01Z","updated_at":"2015-02-09T16:46:01Z"}},{"type":"MultiPolygon","arcs":[[[147,-11,148,149,-45,-142,150,-146,151,152]],[[153]]],"properties":{"id":13,"name":"Mato Grosso","sigla":"MT","regiao_id":"5","codigo_ibg":"51","cartodb_id":13,"created_at":"2015-02-09T16:46:01Z","updated_at":"2015-02-09T16:46:01Z"}},{"type":"MultiPolygon","arcs":[[[154,-48,155,-149,-10,156,157,-14,158]],[[159]],[[160]],[[161]],[[162]],[[163]],[[164]],[[165]],[[166]],[[167]],[[168]],[[169]],[[170]],[[171]],[[172]],[[173]]],"properties":{"id":14,"name":"Pará","sigla":"PA","regiao_id":"3","codigo_ibg":"15","cartodb_id":14,"created_at":"2015-02-09T16:46:01Z","updated_at":"2015-02-09T16:46:01Z"}},{"type":"MultiPolygon","arcs":[[[174,175,-27,176]],[[177]]],"properties":{"id":15,"name":"Paraíba","sigla":"PB","regiao_id":"4","codigo_ibg":"25","cartodb_id":15,"created_at":"2015-02-09T16:46:01Z","updated_at":"2015-02-09T16:46:01Z"}},{"type":"MultiPolygon","arcs":[[[178,-7,-23,179,-28,-176]],[[180]],[[181]]],"properties":{"id":16,"name":"Pernambuco","sigla":"PE","regiao_id":"4","codigo_ibg":"26","cartodb_id":16,"created_at":"2015-02-09T16:46:01Z","updated_at":"2015-02-09T16:46:01Z"}},{"type":"MultiPolygon","arcs":[[[-29,-180,-22,182,-61,183]]],"properties":{"id":17,"name":"Piauí","sigla":"PI","regiao_id":"4","codigo_ibg":"22","cartodb_id":17,"created_at":"2015-02-09T16:46:01Z","updated_at":"2015-02-09T16:46:01Z"}},{"type":"MultiPolygon","arcs":[[[184,185,186,-144,187]]],"properties":{"id":18,"name":"Paraná","sigla":"PR","regiao_id":"1","codigo_ibg":"41","cartodb_id":18,"created_at":"2015-02-09T16:46:01Z","updated_at":"2015-02-09T16:46:01Z"}},{"type":"MultiPolygon","arcs":[[[188,189,-138,-33,190,191,192,193],[194]],[[195]],[[196]],[[197]],[[198]],[[199]],[[200]],[[201]],[[202]],[[203]],[[204]],[[205]],[[206]],[[207]],[[208]],[[209]],[[210]],[[211]],[[212]],[[213]],[[214]],[[215]],[[216]],[[217]],[[218]],[[219]],[[220]],[[221]],[[222]],[[223]],[[224]],[[225]],[[226]],[[227]],[[228]],[[229]]],"properties":{"id":19,"name":"Rio de Janeiro","sigla":"RJ","regiao_id":"2","codigo_ibg":"33","cartodb_id":19,"created_at":"2015-02-09T16:46:01Z","updated_at":"2015-02-09T16:46:01Z"}},{"type":"MultiPolygon","arcs":[[[-177,-26,230]]],"properties":{"id":20,"name":"Rio Grande do Norte","sigla":"RN","regiao_id":"4","codigo_ibg":"24","cartodb_id":20,"created_at":"2015-02-09T16:46:01Z","updated_at":"2015-02-09T16:46:01Z"}},{"type":"MultiPolygon","arcs":[[[231,-1,-12,-148,232,-153,233]],[[234]]],"properties":{"id":21,"name":"Rondônia","sigla":"RO","regiao_id":"3","codigo_ibg":"11","cartodb_id":21,"created_at":"2015-02-09T16:46:01Z","updated_at":"2015-02-09T16:46:01Z"}},{"type":"MultiPolygon","arcs":[[[-157,-9,235]]],"properties":{"id":22,"name":"Roraima","sigla":"RR","regiao_id":"3","codigo_ibg":"14","cartodb_id":22,"created_at":"2015-02-09T16:46:01Z","updated_at":"2015-02-09T16:46:01Z"}},{"type":"MultiPolygon","arcs":[[[236,237,238,239,240,241,242,243,244,245,246]],[[247]],[[248]],[[249]],[[250]],[[251]],[[252]],[[253]],[[254]],[[255]],[[256]],[[257]],[[258]],[[259]]],"properties":{"id":23,"name":"Rio Grande do Sul","sigla":"RS","regiao_id":"1","codigo_ibg":"43","cartodb_id":23,"created_at":"2015-02-09T16:46:01Z","updated_at":"2015-02-09T16:46:01Z"}},{"type":"MultiPolygon","arcs":[[[-186,260,-241,261,-240,262,-239,263,-238,264]],[[265]],[[266]]],"properties":{"id":24,"name":"Santa Catarina","sigla":"SC","regiao_id":"1","codigo_ibg":"42","cartodb_id":24,"created_at":"2015-02-09T16:46:01Z","updated_at":"2015-02-09T16:46:01Z"}},{"type":"MultiPolygon","arcs":[[[267,-16,-5]]],"properties":{"id":25,"name":"Sergipe","sigla":"SE","regiao_id":"4","codigo_ibg":"28","cartodb_id":25,"created_at":"2015-02-09T16:46:01Z","updated_at":"2015-02-09T16:46:01Z"}},{"type":"MultiPolygon","arcs":[[[-188,-143,-139,-190,268]],[[269]],[[270]],[[271]],[[272]],[[273]],[[274]],[[275]],[[276]],[[277]],[[278]],[[279]],[[280]],[[281]],[[282]],[[283]],[[284]],[[285]],[[286]],[[287]],[[288]],[[289]],[[290]],[[291]],[[292]]],"properties":{"id":26,"name":"São Paulo","sigla":"SP","regiao_id":"2","codigo_ibg":"35","cartodb_id":26,"created_at":"2015-02-09T16:46:01Z","updated_at":"2015-02-09T16:46:01Z"}},{"type":"MultiPolygon","arcs":[[[-62,-183,-21,-46,-150,-156,-47,293]]],"properties":{"id":27,"name":"Tocantins","sigla":"TO","regiao_id":"3","codigo_ibg":"17","cartodb_id":27,"created_at":"2015-02-09T16:46:01Z","updated_at":"2015-02-09T16:46:01Z"}},{"type":"MultiPolygon","arcs":[[[-141,-42]]],"properties":{"id":7,"name":"Distrito Federal","sigla":"DF","regiao_id":"5","codigo_ibg":"53","cartodb_id":7,"created_at":"2015-02-09T16:46:01Z","updated_at":"2015-02-09T16:46:01Z"}}]}},"arcs":[[[-66.805966,-9.814127],[-66.619301,-9.893602]],[[-66.619301,-9.893602],[-66.637944,-9.949046],[-66.872661,-10.081206],[-67.011306,-10.254042],[-67.587596,-10.509852],[-67.707391,-10.708131],[-67.865196,-10.640906],[-68.02848,-10.655925],[-68.237692,-10.956333],[-68.715613,-11.143104],[-68.757804,-11.000915],[-69.013114,-11.004723],[-69.184682,-10.949152],[-69.602023,-10.941876],[-69.736949,-10.974229],[-69.935091,-10.92091],[-70.160587,-11.039568],[-70.437261,-11.039065],[-70.531044,-10.934591],[-70.621576,-10.999458],[-70.622653,-9.821404],[-70.52595,-9.713189],[-70.597575,-9.605619],[-70.503752,-9.495296],[-70.565479,-9.426898],[-70.998598,-9.81361],[-71.173071,-9.888149],[-71.212348,-9.966583],[-71.376734,-10.000566],[-72.180409,-9.99979],[-72.150676,-9.799055],[-72.270993,-9.749449],[-72.285249,-9.539564],[-72.408949,-9.477051],[-72.716601,-9.410844],[-73.207541,-9.411047],[-72.939625,-9.061657],[-73.118283,-8.721465],[-73.290566,-8.614645],[-73.279806,-8.47484],[-73.389162,-8.469288],[-73.536741,-8.345494],[-73.630059,-8.021454],[-73.732583,-7.967719],[-73.690908,-7.767371],[-73.82661,-7.715599],[-73.981873,-7.566483],[-73.922577,-7.465094],[-73.966932,-7.359817],[-73.717072,-7.32791],[-73.803699,-7.111057]],[[-73.803699,-7.111057],[-72.658816,-7.624607],[-70.368997,-8.141024],[-69.435256,-8.641215],[-68.784481,-8.972206],[-68.188419,-9.232315],[-66.805966,-9.814127]],[[-35.152043,-8.912951],[-35.396054,-9.302568],[-35.456755,-9.342132],[-35.722986,-9.683245],[-35.812344,-9.731779],[-36.046058,-10.075284],[-36.271716,-10.27463],[-36.393427,-10.498067]],[[-36.393427,-10.498067],[-36.56649,-10.332292],[-36.843007,-10.192544],[-37.152546,-9.900428],[-37.466452,-9.749101],[-37.581417,-9.73355],[-38.00302,-9.51458]],[[-38.00302,-9.51458],[-38.154557,-9.443],[-38.237084,-9.329271]],[[-38.237084,-9.329271],[-38.091895,-9.172308],[-37.978946,-9.147961],[-37.759906,-8.857214],[-37.643234,-9.017872],[-37.540769,-8.958064],[-37.315103,-9.093861],[-37.22837,-9.22512],[-37.116062,-9.240515],[-36.952008,-9.38212],[-36.899321,-9.28257],[-36.693396,-9.274908],[-36.603786,-9.340622],[-36.486998,-9.241067],[-36.27372,-9.165777],[-36.123656,-9.030058],[-36.126455,-8.955591],[-35.795051,-8.847707],[-35.747919,-8.916723],[-35.563189,-8.831218],[-35.152043,-8.912951]],[[-35.290981,-9.148233],[-35.290981,-9.148233]],[[-63.371834,2.212058],[-63.14098,2.172756],[-63.023254,2.014976],[-62.838305,2.016776],[-62.705501,1.940031],[-62.723213,1.712696],[-62.803914,1.590666],[-62.619708,1.40408],[-62.520557,1.084131],[-62.445258,0.977169],[-62.457205,0.785515],[-62.52804,0.710527],[-62.51813,0.444021],[-62.414422,0.0747],[-62.18784,-0.330494],[-62.317843,-0.552169],[-62.287008,-0.638007],[-62.509707,-0.75864],[-62.258593,-0.975589],[-62.016927,-1.141413],[-61.896094,-1.395022],[-61.604422,-1.447798],[-61.474144,-1.578632],[-61.60641,-1.245861],[-61.546093,-1.070858],[-61.578031,-0.909746],[-61.456367,-0.656696],[-61.086925,-0.499759],[-60.797199,-0.70058],[-60.752194,-0.860857],[-60.530535,-0.874748],[-60.497477,-0.789193],[-60.309142,-0.724475],[-60.399423,-0.509759],[-60.037434,0.263837],[-58.89489,0.263852]],[[-58.89489,0.263852],[-58.863362,-0.077706],[-58.871545,-0.342665],[-58.743503,-0.417114],[-58.73148,-0.62703],[-58.458526,-0.863663],[-58.429563,-1.026786],[-58.162129,-1.229325],[-58.01703,-1.105819],[-57.959836,-1.40124],[-57.305,-1.729945],[-57.097345,-1.774767],[-57.036699,-1.911216],[-56.720823,-2.048789],[-56.768032,-2.165412],[-56.612406,-2.209831],[-56.526559,-2.138856],[-56.413378,-2.17561],[-56.227872,-2.055883],[-56.098136,-2.026721],[-56.168924,-2.145167],[-56.383812,-2.270135],[-56.463981,-2.431253],[-56.401654,-2.456277],[-57.018401,-3.797953],[-57.547571,-4.921233],[-58.262031,-6.468555],[-58.426783,-6.615798],[-58.481232,-6.781051],[-58.434032,-6.908436],[-58.182799,-7.1779],[-58.136365,-7.356093]],[[-58.136365,-7.356093],[-58.212486,-7.458079],[-58.201587,-7.620545],[-58.382425,-7.838707],[-58.286076,-8.087061],[-58.318033,-8.329806],[-58.416655,-8.491859],[-58.436896,-8.703034],[-58.327811,-8.711724],[-58.499833,-8.802438],[-60.41947,-8.796234],[-61.582423,-8.79831]],[[-61.582423,-8.79831],[-61.741316,-8.694817],[-61.8595,-8.852734],[-61.989687,-8.87228],[-62.124437,-8.801291],[-62.187856,-8.590182],[-62.335242,-8.609107],[-62.360271,-8.39817],[-62.517939,-8.384363],[-62.649414,-8.236651],[-62.69175,-8.092534],[-62.866087,-7.975496],[-63.620267,-7.968921],[-63.790714,-8.332839],[-63.943608,-8.330811],[-64.027357,-8.715286],[-64.142558,-8.742652],[-64.14126,-8.94467],[-64.310813,-8.996089],[-64.322894,-8.92848],[-64.61058,-9.016071],[-64.798969,-8.985082],[-64.939444,-9.124184],[-64.919198,-9.219896],[-65.053067,-9.401755],[-65.142404,-9.446424],[-65.246189,-9.257276],[-65.393056,-9.339208],[-65.431637,-9.458247],[-65.596321,-9.413476],[-65.723101,-9.558664],[-65.969866,-9.412766],[-66.173214,-9.434026],[-66.408458,-9.406552],[-66.392013,-9.500085],[-66.50022,-9.633167],[-66.609064,-9.6645],[-66.805966,-9.814127]],[[-73.803699,-7.111057],[-73.644775,-6.761425],[-73.356219,-6.594239],[-73.212849,-6.576074],[-73.108835,-6.409347],[-73.248967,-6.144206],[-73.151062,-5.862853],[-72.96166,-5.653915],[-72.956608,-5.464366],[-72.863366,-5.239142],[-72.885452,-5.16594],[-71.945709,-4.604409],[-71.748908,-4.472351],[-71.597057,-4.530904],[-71.460234,-4.438919],[-71.303399,-4.451324],[-71.277619,-4.38743],[-70.942851,-4.385059],[-70.758716,-4.159616],[-70.680871,-4.198996],[-70.548486,-4.136883],[-70.325613,-4.14608],[-70.315585,-4.259012],[-70.185756,-4.364809],[-70.107803,-4.264269],[-70.03255,-4.35463],[-69.935002,-4.215988],[-69.536177,-2.016032],[-69.398304,-1.144234],[-69.421194,-0.999968],[-69.625743,-0.749224],[-69.563854,-0.63935],[-69.614233,-0.505595],[-69.922767,-0.331057],[-70.05706,-0.186323],[-70.042718,0.559422],[-69.606432,0.629895],[-69.480791,0.735938],[-69.358015,0.612602],[-69.114365,0.650391],[-69.212443,1.020649],[-69.321204,1.096133],[-69.843846,1.085633],[-69.841504,1.720918],[-69.551673,1.79191],[-69.384153,1.730051],[-68.156176,1.73211],[-68.266269,1.82776],[-68.139322,1.985516],[-67.940565,1.831186],[-67.778762,2.031484],[-67.619139,2.024124],[-67.521263,2.170732],[-67.388705,2.244417],[-67.277525,1.876155],[-67.156484,1.849256],[-67.096812,1.733011],[-67.071758,1.443022],[-67.08759,1.167322],[-66.856352,1.230626],[-66.317916,0.755435],[-66.150544,0.744857],[-65.963874,0.809872],[-65.924828,0.891648],[-65.738824,0.999981],[-65.584982,1.009292],[-65.499699,0.842859],[-65.59061,0.722275],[-65.442445,0.690303],[-65.328523,0.931928],[-65.1644,0.950859],[-65.154399,1.125361],[-65.021636,1.115381],[-64.809914,1.314744],[-64.763275,1.231145],[-64.590168,1.337843],[-64.527406,1.444427],[-64.350727,1.518677],[-64.399379,1.395258],[-64.060757,1.701984],[-64.060025,1.931356],[-63.960756,1.992778],[-63.829711,1.968444],[-63.561295,2.132743],[-63.397126,2.147285],[-63.371834,2.212058]],[[-50.093461,0.702404],[-50.346781,0.667161],[-50.436091,0.600423],[-50.579469,0.270123],[-50.784337,0.112435],[-50.974389,0.042104],[-51.065214,-0.075901],[-51.2159,-0.11829],[-51.457325,-0.512906],[-51.683556,-0.797222],[-51.686763,-1.035677],[-51.808628,-1.156769],[-52.062771,-1.190653],[-52.332516,-1.115558],[-52.419593,-1.052367],[-52.455045,-0.829937],[-52.538185,-0.854477],[-52.496937,-0.710955],[-52.534706,-0.573758],[-52.639535,-0.584576],[-52.702207,-0.458905],[-52.683697,-0.313988],[-52.933229,-0.139195],[-52.976816,0.024119],[-53.174834,0.382038],[-53.105819,0.6843],[-53.411014,0.92966],[-53.538067,1.341175],[-53.6414,1.335281],[-53.803508,1.423837],[-54.088261,1.49231],[-54.186925,1.628296],[-54.377229,1.763997],[-54.744288,1.776109],[-54.810844,2.039744],[-54.76262,2.202624],[-54.871708,2.434102]],[[-54.871708,2.434102],[-54.743472,2.471857],[-54.691525,2.361771],[-54.436022,2.210262],[-54.188524,2.179194],[-53.941806,2.242806],[-53.766666,2.379297],[-53.748189,2.31321],[-53.454446,2.264648],[-53.337633,2.353968],[-53.228975,2.262766],[-53.264791,2.189278],[-53.078495,2.212227],[-52.983962,2.157643],[-52.664378,2.38081],[-52.526995,2.577261],[-52.534455,2.647994],[-52.328396,3.080644],[-51.995692,3.626768],[-51.923717,3.783872],[-51.775493,3.959745],[-51.645939,4.044961],[-51.55355,4.415153],[-51.427211,4.37389],[-51.251546,4.191709],[-51.178546,3.945131],[-51.075149,3.890906],[-51.087153,3.392059],[-51.021597,3.208381],[-50.980766,2.937291],[-50.840569,2.639025],[-50.692851,2.208783],[-50.702067,2.13866],[-50.455781,2.204047],[-50.351989,2.087119],[-50.237715,1.803558],[-50.16916,1.81458],[-49.9213,1.70426],[-49.875766,1.481127],[-49.893209,1.193334],[-49.940383,0.993751],[-50.093461,0.702404]],[[-38.00302,-9.51458],[-38.042209,-9.715636],[-37.966276,-9.815631],[-37.967692,-9.962143],[-37.831385,-10.0005],[-37.736156,-10.331607],[-37.858716,-10.426042],[-37.813529,-10.690617],[-37.999466,-10.763949],[-38.211549,-10.708731],[-38.229144,-10.915496],[-38.111219,-11.009499],[-38.04764,-11.176955],[-37.978852,-11.19194],[-37.965112,-11.402077],[-37.674401,-11.567199],[-37.517548,-11.547579],[-37.342503,-11.443448]],[[-37.342503,-11.443448],[-37.514729,-11.741572],[-37.622034,-11.994965],[-38.003643,-12.576892],[-38.347479,-12.950453],[-38.488732,-13.014093],[-38.56176,-12.919511],[-38.96459,-13.283183],[-38.88797,-13.447847],[-38.999734,-13.783056],[-38.928084,-13.906452],[-38.981772,-14.291529],[-39.064638,-14.636648],[-38.997779,-14.993614],[-38.997049,-15.201629],[-38.922651,-15.708971],[-38.856749,-15.8539],[-39.017241,-16.252269],[-39.180639,-17.108472],[-39.212599,-17.168154],[-39.194443,-17.578954],[-39.136929,-17.684248],[-39.27077,-17.871131],[-39.492254,-17.99749],[-39.670192,-18.348743]],[[-39.670192,-18.348743],[-40.222017,-17.979948]],[[-40.222017,-17.979948],[-40.174701,-17.852197],[-40.223543,-17.733587],[-40.460255,-17.568205],[-40.599341,-17.389873],[-40.547353,-17.283229],[-40.578305,-17.14833],[-40.490807,-16.884017],[-40.251719,-16.85958],[-40.335441,-16.77924],[-40.275115,-16.573557],[-40.159458,-16.579837],[-40.097578,-16.42217],[-39.916289,-16.283372],[-39.856434,-16.113361],[-40.084627,-15.89666],[-40.230469,-15.80329],[-40.561657,-15.802818],[-40.698962,-15.668161],[-40.961884,-15.648427],[-41.143847,-15.771365],[-41.330809,-15.744212],[-41.356026,-15.499831],[-41.800314,-15.100642],[-42.095673,-15.181989],[-42.172924,-15.085499],[-42.264398,-15.12472],[-42.624891,-14.944012],[-42.93848,-14.707578],[-43.175946,-14.650098],[-43.434484,-14.722593],[-43.530985,-14.814849],[-43.580212,-14.750364],[-43.883097,-14.652781],[-43.87347,-14.520136],[-43.782789,-14.338799],[-44.2402,-14.240256],[-44.556786,-14.336592],[-44.813399,-14.504214],[-45.095041,-14.75243],[-45.205153,-14.744292],[-45.399378,-14.91705],[-45.565705,-14.944415],[-45.674316,-15.080042],[-45.972043,-15.15427],[-46.076651,-15.264229],[-45.965653,-14.965196],[-46.036986,-14.873636]],[[-46.036986,-14.873636],[-45.998393,-14.428942],[-45.906861,-14.352935],[-46.196856,-14.142759],[-46.267705,-13.943318],[-46.242086,-13.658201],[-46.161537,-13.590492],[-46.242457,-13.429489],[-46.048046,-13.308765],[-46.063382,-13.260869],[-46.278959,-13.347464],[-46.329738,-13.252377],[-46.272949,-13.014522],[-46.113889,-12.917537]],[[-46.113889,-12.917537],[-46.304358,-12.949443],[-46.248553,-12.436561],[-46.372458,-12.289847],[-46.394994,-12.025859],[-46.179745,-11.886477],[-46.374156,-11.868178],[-46.25585,-11.620751],[-46.08657,-11.642212],[-46.519635,-11.483129],[-46.615517,-11.301782],[-46.471932,-11.190765],[-46.398507,-10.993976],[-46.282995,-10.906335],[-46.210548,-10.649255],[-46.059051,-10.593049],[-45.750709,-10.351565],[-45.72247,-10.154896]],[[-45.72247,-10.154896],[-45.602765,-10.107574],[-45.396019,-10.446486],[-45.427434,-10.634605],[-45.247635,-10.821551],[-45.072821,-10.840005],[-44.930806,-10.928339],[-44.667273,-10.759639],[-44.589108,-10.632004],[-44.479143,-10.640049],[-44.335243,-10.548554],[-44.165135,-10.642484],[-44.072611,-10.580291],[-44.028917,-10.415975],[-43.916816,-10.423994],[-43.692516,-10.076982],[-43.708637,-9.912808],[-43.652847,-9.838644],[-43.784519,-9.761973],[-43.849292,-9.547644],[-43.485058,-9.26488],[-43.284722,-9.419618],[-43.119603,-9.37213],[-42.98747,-9.40093],[-42.945855,-9.518006],[-42.82016,-9.618822],[-42.586088,-9.49636],[-42.491784,-9.493047],[-42.225776,-9.283427],[-41.837579,-9.241864],[-41.72322,-9.013136],[-41.544135,-8.960144],[-41.357936,-8.707229]],[[-41.357936,-8.707229],[-41.113256,-8.703597],[-41.02086,-8.843156],[-40.920958,-8.835043],[-40.803722,-9.09793],[-40.667025,-9.158669],[-40.776329,-9.454027],[-40.622789,-9.482496],[-40.435506,-9.361764],[-40.357732,-9.376784],[-40.271339,-9.080579],[-40.12833,-9.109193],[-39.957648,-9.048202],[-39.873572,-8.930907],[-39.894253,-8.831304],[-39.674206,-8.786663],[-39.690755,-8.661922],[-39.383353,-8.533223],[-39.288197,-8.562901],[-39.233395,-8.705363],[-39.032059,-8.736936],[-38.943306,-8.803842],[-38.798427,-8.792369],[-38.640324,-8.986867],[-38.570844,-8.831192],[-38.46958,-8.865077],[-38.519065,-8.947946],[-38.40807,-9.038103],[-38.320245,-8.990659],[-38.318258,-9.140595],[-38.237084,-9.329271]],[[-39.576153,-18.088199],[-39.576153,-18.088199]],[[-40.018043,-2.836985],[-39.619051,-3.025967],[-39.383965,-3.183761],[-39.252153,-3.221755],[-39.083157,-3.393191],[-38.994576,-3.397091],[-38.666507,-3.674369],[-38.466226,-3.71375],[-38.363867,-3.881482],[-38.117899,-4.145302],[-37.592569,-4.625231],[-37.341556,-4.692008],[-37.251574,-4.832043]],[[-37.251574,-4.832043],[-37.639945,-4.926029],[-37.789642,-5.210564],[-37.904396,-5.500761],[-38.082335,-5.672168],[-38.04669,-5.730028],[-38.164332,-5.945699],[-38.304418,-6.086582],[-38.446934,-6.084893],[-38.578217,-6.279809],[-38.564007,-6.355795]],[[-38.564007,-6.355795],[-38.67277,-6.696831],[-38.613774,-6.782794],[-38.764833,-6.910524],[-38.656027,-7.092035],[-38.687448,-7.189766],[-38.534205,-7.293397],[-38.714717,-7.62152]],[[-38.714717,-7.62152],[-39.090918,-7.857785],[-39.105908,-7.759998],[-39.30651,-7.664686],[-39.396291,-7.47489],[-39.662188,-7.310208],[-39.915167,-7.337808],[-39.961097,-7.388578],[-40.24606,-7.433332],[-40.318951,-7.373985],[-40.548081,-7.392315]],[[-40.548081,-7.392315],[-40.489363,-7.118301],[-40.427342,-7.033492],[-40.47586,-6.734121],[-40.709799,-6.675744],[-40.787288,-6.523397],[-40.786849,-6.30451],[-40.851847,-6.223839],[-40.932006,-5.54852],[-40.928609,-5.171297],[-41.131425,-5.047694],[-41.22028,-4.93721],[-41.232749,-4.609187],[-41.118864,-4.312874],[-41.11374,-4.051458],[-41.234273,-4.029309],[-41.300438,-3.825942],[-41.255056,-3.7029],[-41.34137,-3.680416],[-41.344402,-3.418962],[-41.423139,-3.367652],[-41.256275,-3.087663],[-41.322306,-2.920971]],[[-41.322306,-2.920971],[-40.435529,-2.810916],[-40.018043,-2.836985]],[[-40.018043,-2.836985],[-40.018043,-2.836985]],[[-40.723829,-20.841778],[-40.957184,-21.302959]],[[-40.957184,-21.302959],[-41.081034,-21.22149],[-41.276665,-21.239754],[-41.565311,-21.182236],[-41.735717,-21.102283],[-41.740507,-20.817799],[-41.874501,-20.766324]],[[-41.874501,-20.766324],[-41.808382,-20.643747],[-41.80297,-20.421896],[-41.858371,-20.372478],[-41.756348,-20.206372],[-41.411293,-20.206186],[-41.299965,-19.937874],[-41.184476,-19.888469],[-41.159473,-19.661912],[-40.971835,-19.504804],[-40.907301,-19.308324],[-40.943795,-19.143892],[-41.05345,-19.068377],[-41.017182,-18.976045],[-41.232142,-18.796794],[-41.110103,-18.838451],[-40.916547,-18.814972],[-40.943239,-18.687094],[-41.052706,-18.628239],[-41.023539,-18.456692],[-41.175153,-18.443306],[-41.092348,-18.19508],[-40.89271,-18.107399],[-40.772902,-18.10708],[-40.902196,-17.986994],[-40.80838,-17.952277],[-40.70415,-18.022872],[-40.52664,-17.891464],[-40.222017,-17.979948]],[[-39.670192,-18.348743],[-39.728156,-18.499897],[-39.749915,-18.841233],[-39.688553,-19.305828],[-39.806266,-19.630997],[-39.983066,-19.738855],[-40.131001,-19.936376],[-40.197382,-20.216341],[-40.432721,-20.64199],[-40.472407,-20.654176]],[[-40.472407,-20.654176],[-40.576947,-20.790454],[-40.723829,-20.841778]],[[-40.526619,-20.655179],[-40.526619,-20.655179]],[[-40.536145,-20.685265],[-40.536145,-20.685265]],[[-40.472407,-20.654176],[-40.472407,-20.654176]],[[-40.723829,-20.841778],[-40.723829,-20.841778]],[[-46.036986,-14.873636],[-46.176046,-14.948604],[-46.318903,-14.899996],[-46.321767,-14.814134],[-46.502907,-14.703965],[-46.565456,-14.785928],[-46.50217,-15.05181],[-46.625006,-15.089069],[-46.78142,-15.018878],[-46.918317,-15.049421],[-46.927214,-15.254647],[-46.836466,-15.322149],[-46.948659,-15.554148],[-46.854352,-15.619905],[-46.824427,-15.885267],[-47.134903,-15.928297],[-47.308609,-16.035491]],[[-47.308609,-16.035491],[-47.375757,-15.880252],[-47.31543,-15.593974],[-47.416906,-15.499863],[-48.197192,-15.500511],[-48.211514,-15.75536],[-48.286648,-15.842687],[-48.278674,-16.051101],[-47.308367,-16.050078]],[[-47.308367,-16.050078],[-47.322016,-16.230863],[-47.453622,-16.467443],[-47.443965,-16.540311],[-47.258924,-16.655174],[-47.131315,-17.009977],[-47.247283,-17.081311],[-47.538375,-17.388339],[-47.502452,-17.516092],[-47.330481,-17.524378],[-47.26352,-17.619997],[-47.37261,-17.829485],[-47.282756,-18.057769],[-47.638318,-18.287211],[-47.698125,-18.376773],[-47.961739,-18.495605],[-48.047586,-18.416502],[-48.278615,-18.331067],[-48.313173,-18.384374],[-48.560952,-18.323421],[-48.831621,-18.34567],[-48.93631,-18.305744],[-49.076574,-18.416316],[-49.12702,-18.382909],[-49.378284,-18.641881],[-49.497159,-18.493195],[-49.772385,-18.614982],[-50.016113,-18.599377],[-50.079568,-18.671781],[-50.30888,-18.697987],[-50.511395,-18.951501],[-50.584544,-19.136925],[-50.677225,-19.139227],[-50.935323,-19.467213]],[[-50.935323,-19.467213],[-51.087475,-19.307867],[-51.419986,-19.166075],[-51.657456,-19.137458],[-51.939823,-18.967488],[-52.080869,-18.950448],[-52.186483,-18.845423],[-52.308535,-18.839257],[-52.44862,-18.690507],[-52.718081,-18.690819],[-52.916123,-18.638707],[-52.964425,-18.549573],[-52.758375,-18.348349],[-52.948908,-18.296119],[-53.100667,-18.309687],[-53.142735,-18.081387],[-53.071484,-18.039018]],[[-53.071484,-18.039018],[-53.250706,-17.618628],[-53.218139,-17.298858],[-53.089762,-17.085495],[-53.010827,-16.85757],[-52.830765,-16.770819],[-52.603901,-16.464214],[-52.686431,-16.315038],[-52.548123,-16.164674],[-52.327268,-16.068151],[-52.252232,-15.892651],[-52.007555,-15.885037],[-51.891779,-15.829845],[-51.727322,-15.550161],[-51.651614,-15.179438],[-51.535482,-15.069251],[-51.337318,-14.972935],[-51.290016,-15.033891],[-51.149736,-14.982586],[-50.962402,-14.526629],[-50.998599,-14.418798],[-50.960819,-14.248913],[-50.831319,-14.072951],[-50.871321,-13.73266],[-50.762984,-13.529582],[-50.664989,-13.441854],[-50.586064,-13.212027],[-50.610289,-13.062646],[-50.510606,-12.860278]],[[-50.510606,-12.860278],[-50.477597,-12.709527],[-50.323929,-12.507642],[-50.142216,-12.39551],[-50.298516,-12.706688],[-50.292184,-12.839493],[-49.938963,-12.9565],[-49.369037,-13.274169],[-49.353938,-13.10256],[-49.228129,-12.877505],[-49.118631,-12.789931],[-48.975176,-12.956771],[-48.873568,-12.806954],[-48.730296,-12.989361],[-48.601652,-13.059894],[-48.600096,-13.294729],[-48.47918,-13.132784],[-48.459902,-13.27918],[-48.145442,-13.152767],[-48.151094,-13.306106],[-48.054543,-13.238526],[-47.965877,-13.314826],[-47.823547,-13.311435],[-47.678542,-13.46728],[-47.62229,-13.36723],[-47.668457,-13.208973],[-47.61754,-13.104276],[-47.478448,-13.184709],[-47.426534,-13.289007],[-47.228716,-13.194438],[-47.009301,-13.140392],[-46.750177,-12.968724],[-46.45422,-12.970722],[-46.417186,-12.823042],[-46.363444,-12.990788],[-46.113889,-12.917537]],[[-47.031021,-8.98549],[-46.917132,-8.855451],[-46.897409,-8.576341],[-46.63481,-8.318926],[-46.54421,-8.318931],[-46.487135,-8.199514],[-46.491707,-7.981303],[-46.604246,-7.895787],[-46.908965,-7.98008],[-47.043074,-8.053196],[-47.234137,-7.823526],[-47.357796,-7.616703],[-47.479685,-7.525536],[-47.499355,-7.293472],[-47.651338,-7.299872],[-47.744693,-7.162119],[-47.659941,-7.150983],[-47.545932,-7.014431],[-47.498212,-6.67085],[-47.378389,-6.270479],[-47.492943,-5.730158],[-47.482828,-5.564527],[-47.554938,-5.465366],[-47.827104,-5.386219],[-47.873488,-5.272789],[-48.178105,-5.260407],[-48.36347,-5.168012],[-48.519021,-5.191768],[-48.605691,-5.336132],[-48.754713,-5.348801]],[[-48.754713,-5.348801],[-47.815718,-4.614365],[-47.67951,-4.608241],[-47.581044,-4.519572],[-47.473017,-4.31407],[-47.372054,-4.244452],[-47.345135,-4.100351],[-47.08769,-3.855094],[-47.037359,-3.562529],[-46.942053,-3.374901],[-46.811237,-3.301553],[-46.651664,-2.996168],[-46.679228,-2.881383],[-46.587472,-2.844596],[-46.667664,-2.733678],[-46.605553,-2.63878],[-46.415968,-2.529057],[-46.410526,-2.230747],[-46.280222,-2.152558],[-46.218159,-1.912881],[-46.290748,-1.72308],[-46.153206,-1.675556],[-46.176215,-1.475021],[-46.103738,-1.201748]],[[-46.103738,-1.201748],[-45.964677,-1.046262],[-45.952687,-1.230267],[-45.837347,-1.053704],[-45.894759,-1.230427],[-45.81443,-1.254715]],[[-45.81443,-1.254715],[-45.727403,-1.140244],[-45.677577,-1.344425],[-45.554294,-1.317899]],[[-45.554294,-1.317899],[-45.55761,-1.328899]],[[-45.55761,-1.328899],[-45.515138,-1.406052]],[[-45.515138,-1.406052],[-45.484236,-1.47532],[-45.292582,-1.421274],[-45.338941,-1.584366],[-45.263037,-1.626395],[-45.103678,-1.402188]],[[-45.103678,-1.402188],[-45.10648,-1.393977]],[[-45.10648,-1.393977],[-45.096906,-1.468196]],[[-45.096906,-1.468196],[-45.068669,-1.466032]],[[-45.068669,-1.466032],[-45.070153,-1.453052]],[[-45.070153,-1.453052],[-44.962403,-1.500607],[-44.824872,-1.413155],[-44.906615,-1.547698],[-44.849831,-1.624745],[-44.696019,-1.556928],[-44.656899,-1.665966],[-44.801176,-1.709222],[-44.602324,-1.746596],[-44.613755,-1.830106]],[[-44.613755,-1.830106],[-44.48747,-1.944881],[-44.499196,-2.141422],[-44.395555,-2.213196],[-44.35553,-2.338767],[-44.412392,-2.412709],[-44.325584,-2.499677],[-44.092303,-2.406409],[-43.958428,-2.481912],[-43.614769,-2.219012],[-43.491542,-2.371156],[-43.379741,-2.3248],[-43.184776,-2.373164],[-42.744241,-2.557435]],[[-42.744241,-2.557435],[-42.544029,-2.686949],[-42.157439,-2.695148],[-41.813728,-2.738959]],[[-41.813728,-2.738959],[-41.86511,-2.87453],[-41.796411,-2.966204],[-41.999839,-3.240734],[-42.115443,-3.261972],[-42.209705,-3.435945],[-42.486948,-3.448557],[-42.675365,-3.675239],[-42.725816,-3.909646],[-42.988804,-4.233691],[-42.962921,-4.376049],[-42.871646,-4.428196],[-42.867531,-4.563199],[-42.954199,-4.689096],[-42.854396,-4.936649],[-42.799865,-5.199003],[-42.825925,-5.346574],[-43.080251,-5.599474],[-43.099029,-5.900712],[-43.049587,-6.099368],[-42.873984,-6.227742],[-42.828943,-6.337041],[-42.919385,-6.669924],[-43.000776,-6.754076],[-43.244301,-6.765967],[-43.456908,-6.845938],[-43.637115,-6.719177],[-43.794986,-6.702513],[-44.113928,-6.804673],[-44.305797,-7.116782],[-44.563663,-7.227144],[-44.687572,-7.394145],[-44.816324,-7.360815],[-44.924034,-7.4699],[-45.339354,-7.579855],[-45.468498,-7.688739],[-45.539958,-7.864306],[-45.58105,-8.155652],[-45.661138,-8.249623],[-45.765218,-8.609179],[-45.934583,-8.7787],[-45.993873,-8.926466],[-45.896655,-9.186113],[-45.906644,-9.297612],[-45.797423,-9.416847],[-45.831521,-9.536388],[-45.841865,-9.941148],[-45.945953,-10.258155]],[[-45.945953,-10.258155],[-46.022797,-10.182971],[-46.327097,-10.183284],[-46.443458,-10.077168],[-46.511726,-9.798577],[-46.642357,-9.741059],[-46.5374,-9.557383],[-46.665546,-9.391517],[-46.846635,-9.292022],[-46.819186,-9.211214],[-47.031021,-8.98549]],[[-44.813378,-1.802112],[-44.813378,-1.802112]],[[-44.569338,-1.919747],[-44.569338,-1.919747]],[[-45.74672,-1.37203],[-45.74672,-1.37203]],[[-45.887523,-1.18035],[-45.887523,-1.18035]],[[-45.822442,-1.310566],[-45.822442,-1.310566]],[[-44.693307,-1.816271],[-44.693307,-1.816271]],[[-45.389812,-1.68975],[-45.389812,-1.68975]],[[-44.800955,-1.626302],[-44.800955,-1.626302]],[[-45.127825,-1.543968],[-45.127825,-1.543968]],[[-45.822986,-1.248629],[-45.822986,-1.248629]],[[-45.575672,-1.335734],[-45.575672,-1.335734]],[[-45.7995,-1.331501],[-45.7995,-1.331501]],[[-44.834212,-1.822641],[-44.834212,-1.822641]],[[-45.36857,-1.43638],[-45.36857,-1.43638]],[[-45.905415,-1.240259],[-45.905415,-1.240259]],[[-45.594841,-1.339187],[-45.594841,-1.339187]],[[-45.392395,-1.564463],[-45.392395,-1.564463]],[[-44.97077,-1.344386],[-44.97077,-1.344386]],[[-44.924278,-1.339253],[-44.924278,-1.339253]],[[-44.909326,-1.325444],[-44.909326,-1.325444]],[[-45.677976,-1.300212],[-45.640329,-1.31059]],[[-45.640329,-1.31059],[-45.677976,-1.300212]],[[-45.659412,-1.296955],[-45.659412,-1.296955]],[[-44.801813,-1.529242],[-44.801813,-1.529242]],[[-44.774421,-1.527162],[-44.774421,-1.527162]],[[-45.685207,-1.19606],[-45.685207,-1.19606]],[[-45.541913,-1.195021],[-45.541913,-1.195021]],[[-44.611386,-1.784215],[-44.611386,-1.784215]],[[-44.728811,-1.562094],[-44.728811,-1.562094]],[[-45.798437,-1.126644],[-45.798437,-1.126644]],[[-45.794195,-1.188348],[-45.794195,-1.188348]],[[-45.55761,-1.328899],[-45.554294,-1.317899]],[[-45.554294,-1.317899],[-45.55761,-1.328899]],[[-45.090045,-1.41925],[-45.090045,-1.41925]],[[-45.096906,-1.468196],[-45.068669,-1.466032]],[[-45.068669,-1.466032],[-45.096906,-1.468196]],[[-45.036117,-1.390365],[-45.036117,-1.390365]],[[-44.749242,-1.692028],[-44.749242,-1.692028]],[[-45.677976,-1.300212],[-45.677976,-1.300212]],[[-44.46838,-2.075885],[-44.46838,-2.075885]],[[-44.480207,-2.106097],[-44.480207,-2.106097]],[[-45.397623,-1.395383],[-45.397623,-1.395383]],[[-45.070153,-1.453052],[-45.070153,-1.453052]],[[-44.722809,-1.661879],[-44.722809,-1.661879]],[[-44.445095,-2.025063],[-44.445095,-2.025063]],[[-44.622565,-1.812089],[-44.622565,-1.812089]],[[-45.089187,-1.431686],[-45.089187,-1.431686]],[[-45.515138,-1.406052],[-45.515138,-1.406052]],[[-45.047764,-1.327364],[-45.047764,-1.327364]],[[-45.790641,-1.247342],[-45.790641,-1.247342]],[[-45.002047,-1.40122],[-45.002047,-1.40122]],[[-44.613755,-1.830106],[-44.613755,-1.830106]],[[-45.626304,-1.318555],[-45.626304,-1.318555]],[[-44.830968,-1.56042],[-44.830968,-1.56042]],[[-45.558671,-1.2604],[-45.558671,-1.2604]],[[-42.744241,-2.557435],[-42.744241,-2.557435]],[[-44.00926,-2.399591],[-44.00926,-2.399591]],[[-44.611386,-1.784215],[-44.611386,-1.784215]],[[-45.640329,-1.31059],[-45.640329,-1.31059]],[[-45.653755,-1.361002],[-45.653755,-1.361002]],[[-45.641958,-1.247054],[-45.641958,-1.247054]],[[-44.00926,-2.399591],[-44.00926,-2.399591]],[[-45.139127,-1.46854],[-45.139127,-1.46854]],[[-44.775734,-1.568849],[-44.775734,-1.568849]],[[-44.875674,-1.339903],[-44.875674,-1.339903]],[[-45.036117,-1.390365],[-45.036117,-1.390365]],[[-45.135795,-1.488631],[-45.135795,-1.488631]],[[-44.45765,-2.13373],[-44.45765,-2.13373]],[[-45.81443,-1.254715],[-45.81443,-1.254715]],[[-47.031021,-8.98549],[-47.031021,-8.98549]],[[-45.103678,-1.402188],[-45.103678,-1.402188]],[[-45.10648,-1.393977],[-45.10648,-1.393977]],[[-45.558671,-1.2604],[-45.558671,-1.2604]],[[-44.756861,-1.592813],[-44.756861,-1.592813]],[[-45.76409,-1.187979],[-45.76409,-1.187979]],[[-41.874501,-20.766324],[-41.976257,-20.935011],[-42.151261,-20.973889],[-42.080057,-21.035198],[-42.20808,-21.177719],[-42.189283,-21.249405],[-42.368769,-21.639144],[-42.271127,-21.714706],[-42.88209,-21.959616],[-43.072998,-22.093352],[-43.130661,-22.029483],[-43.346429,-22.003372],[-43.462045,-22.072151],[-43.777012,-22.066282],[-44.065962,-22.161605],[-44.260159,-22.267869],[-44.456015,-22.256748],[-44.54308,-22.331261],[-44.808797,-22.404772]],[[-44.808797,-22.404772],[-45.149692,-22.506835],[-45.274162,-22.615691],[-45.410048,-22.651174],[-45.471344,-22.590023],[-45.583925,-22.651189],[-45.736988,-22.608068],[-45.819423,-22.722059],[-45.72783,-22.72317],[-45.765666,-22.841937],[-45.922135,-22.823553],[-46.138633,-22.922257],[-46.14419,-22.857802],[-46.344771,-22.904182],[-46.334763,-22.759699],[-46.454056,-22.521899],[-46.666102,-22.413897],[-46.710436,-22.263454],[-46.612588,-22.149758],[-46.684954,-22.03686],[-46.617791,-21.994448],[-46.690506,-21.836456],[-46.499705,-21.554097],[-46.519786,-21.44801],[-46.665248,-21.36116],[-47.010779,-21.421805],[-47.098248,-21.213003],[-47.143268,-20.981899],[-47.239588,-20.884798],[-47.096922,-20.643854],[-47.153918,-20.519245],[-47.291328,-20.448829],[-47.230652,-20.218623],[-47.438674,-20.049187],[-47.465923,-19.963742],[-47.635516,-20.047902],[-47.703779,-19.979426],[-47.859325,-19.992516],[-47.893921,-20.123355],[-47.975508,-20.034894],[-48.111617,-20.143418],[-48.218528,-20.11491],[-48.72907,-20.149773],[-48.855175,-20.18161],[-48.8671,-20.398194],[-48.968425,-20.393266],[-48.991778,-20.164918],[-49.067439,-20.153973],[-49.179091,-20.3097],[-49.298774,-20.16659],[-49.297065,-19.960072],[-49.439905,-19.980332],[-49.550991,-19.905373],[-49.855095,-19.94635],[-50.10233,-19.875441],[-50.352314,-19.864117],[-50.471424,-19.779185],[-50.656409,-19.904906],[-50.783115,-19.936761],[-50.999985,-20.084914]],[[-50.999985,-20.084914],[-51.044942,-19.737091],[-50.935323,-19.467213]],[[-47.308367,-16.050078],[-47.308609,-16.035491]],[[-53.87182,-17.921417],[-53.773707,-18.000322],[-53.4299,-17.983541],[-53.071484,-18.039018]],[[-50.999985,-20.084914],[-51.068671,-20.249579],[-51.350374,-20.36271],[-51.634399,-20.754379],[-51.626187,-20.945876],[-51.713198,-20.970985],[-51.864976,-21.130068],[-51.848013,-21.266164],[-51.928178,-21.455342],[-52.102787,-21.558588],[-52.049327,-21.660861],[-52.318579,-21.97189],[-52.486248,-22.214718],[-52.998066,-22.492709],[-53.104669,-22.621452]],[[-53.104669,-22.621452],[-53.180435,-22.71316],[-53.53421,-22.882091],[-53.633603,-22.998018],[-53.636063,-23.124554],[-53.770581,-23.371651],[-53.982333,-23.459527],[-54.129176,-23.981628],[-54.287104,-24.06951]],[[-54.287104,-24.06951],[-54.42937,-23.913901],[-54.670806,-23.811711],[-55.060033,-23.992131],[-55.336559,-23.993539],[-55.442892,-23.916699],[-55.438543,-23.7114],[-55.529521,-23.630384],[-55.561354,-23.475695],[-55.542539,-23.155674],[-55.596666,-23.152081],[-55.660016,-22.881804],[-55.624079,-22.627764],[-55.747745,-22.500103],[-55.744119,-22.388947],[-55.85243,-22.281485],[-56.209411,-22.276399],[-56.362919,-22.169924],[-56.397388,-22.078094],[-56.516331,-22.108021],[-56.64029,-22.244037],[-56.841153,-22.302007],[-56.996383,-22.222806],[-57.240515,-22.249215],[-57.579392,-22.173507],[-57.612416,-22.094478],[-57.802267,-22.150053],[-57.991276,-22.090252],[-57.91633,-21.873189],[-57.96911,-21.846325],[-57.883443,-21.69279],[-57.966222,-21.525029],[-57.85285,-21.317924],[-57.867066,-21.041056],[-57.816579,-20.979536],[-57.947224,-20.799901],[-57.863256,-20.745348],[-57.984592,-20.701208],[-57.994689,-20.441665],[-58.165678,-20.175993],[-57.858701,-19.969935],[-58.131162,-19.757998],[-57.783548,-19.033015],[-57.766025,-18.89879],[-57.557122,-18.239851],[-57.453292,-18.230674],[-57.57422,-18.131396],[-57.782487,-17.638408],[-57.751762,-17.563888]],[[-57.751762,-17.563888],[-57.711544,-17.543665],[-57.603244,-17.803409],[-57.446186,-17.874066],[-57.115074,-17.780648],[-56.875436,-17.532533],[-56.733322,-17.309422],[-56.442799,-17.330273],[-56.25082,-17.218585],[-56.04462,-17.171152],[-56.01026,-17.238603],[-55.582386,-17.378631],[-55.523567,-17.480734],[-55.292149,-17.542105],[-55.126737,-17.652278],[-54.86035,-17.623409],[-54.74844,-17.522444],[-54.581152,-17.467562],[-54.38243,-17.571087],[-54.335071,-17.661278],[-54.084184,-17.618589],[-54.037121,-17.485997],[-53.95174,-17.458891],[-53.819566,-17.294168],[-53.67957,-17.253125],[-53.705649,-17.661944],[-53.855399,-17.702269],[-53.951155,-17.915342],[-53.87182,-17.921417]],[[-53.87182,-17.921417],[-53.87182,-17.921417]],[[-60.360833,-13.299324],[-60.267076,-13.076879],[-60.078571,-12.880736],[-60.068196,-12.615595],[-59.773813,-12.340553],[-59.885808,-12.24507],[-59.984634,-11.913945],[-60.098321,-11.845156],[-60.110377,-11.582095],[-59.920097,-11.397613],[-59.976238,-11.121993],[-60.347429,-11.108644],[-60.459516,-10.989463],[-61.549712,-10.985703],[-61.473291,-10.79712],[-61.498272,-10.699524],[-61.461237,-10.41952],[-61.59965,-10.154439],[-61.507378,-9.860696],[-61.477057,-9.626913],[-61.580951,-9.45848],[-61.627783,-9.256719],[-61.525876,-9.243674],[-61.554402,-9.089868],[-61.468111,-8.917145],[-61.582423,-8.79831]],[[-58.136365,-7.356093],[-58.058517,-7.400027],[-57.897626,-7.675645],[-57.828313,-7.972516],[-57.642751,-8.213293],[-57.681065,-8.432744],[-57.592418,-8.756092],[-57.192341,-8.929666],[-57.038728,-9.097904],[-56.995034,-9.233453],[-56.819594,-9.245953],[-56.753757,-9.405974],[-56.67137,-9.367007],[-54.995058,-9.505018],[-53.132898,-9.644462],[-51.304027,-9.771901],[-50.224346,-9.840752]],[[-50.224346,-9.840752],[-50.391687,-10.133627],[-50.417827,-10.355864],[-50.602989,-10.660528],[-50.608993,-11.067047],[-50.741594,-11.454492],[-50.664456,-11.58477],[-50.721123,-11.731298],[-50.638822,-11.884152],[-50.68251,-11.9941],[-50.626529,-12.457771],[-50.706022,-12.609279],[-50.622263,-12.819312],[-50.510606,-12.860278]],[[-53.87182,-17.921417],[-53.87182,-17.921417]],[[-57.751762,-17.563888],[-57.883044,-17.449215],[-57.979908,-17.510102],[-58.246104,-17.354199],[-58.394895,-17.183657],[-58.473776,-16.913968],[-58.462463,-16.651738],[-58.343235,-16.517262],[-58.320661,-16.264235],[-58.429683,-16.320738],[-59.469428,-16.279026],[-60.171006,-16.265216],[-60.237945,-15.473381],[-60.564259,-15.108196],[-60.243662,-15.0963],[-60.271537,-14.619837],[-60.452442,-14.313466],[-60.478253,-14.095725],[-60.388823,-13.978169],[-60.466579,-13.795243],[-60.70778,-13.692483]],[[-60.70778,-13.692483],[-60.631655,-13.571292],[-60.387376,-13.454285],[-60.360833,-13.299324]],[[-60.360833,-13.299324],[-60.360833,-13.299324]],[[-46.951454,-0.73406],[-46.851628,-0.847537],[-46.651357,-0.782758],[-46.674917,-0.975897],[-46.510537,-0.883887],[-46.460692,-1.017218],[-46.316862,-1.014015],[-46.204246,-0.886023],[-46.206244,-1.039284],[-46.072328,-1.10737],[-46.103738,-1.201748]],[[-48.754713,-5.348801],[-48.510312,-5.429278],[-48.39307,-5.393845],[-48.300269,-5.522636],[-48.137715,-5.60232],[-48.272103,-5.725121],[-48.231193,-5.945764],[-48.338159,-6.020466],[-48.282719,-6.081183],[-48.435992,-6.193024],[-48.382239,-6.379232],[-48.499774,-6.350551],[-48.612713,-6.453351],[-48.651519,-6.639573],[-48.813745,-6.751385],[-49.018438,-6.783831],[-49.20905,-6.92502],[-49.184836,-7.234789],[-49.377546,-7.496062],[-49.341196,-7.656879],[-49.160293,-7.79098],[-49.175681,-8.054193],[-49.282871,-8.379166],[-49.591958,-8.839096],[-49.683903,-8.856079],[-49.842136,-9.026932],[-49.907238,-9.173427],[-50.050298,-9.31267],[-50.089103,-9.545295],[-50.224346,-9.840752]],[[-58.89489,0.263852],[-58.894945,1.228228]],[[-58.894945,1.228228],[-58.738982,1.20046],[-58.704891,1.294114],[-58.495734,1.26844],[-58.508204,1.463278],[-58.371269,1.482012],[-58.331846,1.59113],[-58.003746,1.503541],[-57.989467,1.659704],[-57.791541,1.728054],[-57.649894,1.682842],[-57.513742,1.723493],[-57.432882,1.906457],[-57.304317,1.999631],[-57.25471,1.950977],[-57.116069,2.028234],[-57.00021,1.907742],[-56.797398,1.853959],[-56.720434,1.926259],[-56.4825,1.954752],[-55.998349,1.831861],[-55.903284,1.888584],[-56.042316,2.22832],[-56.13831,2.266264],[-55.937766,2.53343],[-55.747226,2.412454],[-55.384796,2.418866],[-55.319683,2.515833],[-55.102489,2.52614],[-54.953708,2.584086],[-54.871708,2.434102]],[[-50.093461,0.702404],[-50.040352,0.573856],[-50.0608,0.338753],[-49.902886,0.311328],[-49.677186,0.366293],[-49.475149,0.079293],[-49.367134,-0.000035],[-49.007648,-0.160392],[-48.913134,-0.232798],[-48.411823,-0.25691],[-48.390053,-0.362948],[-48.472118,-0.498754],[-47.999989,-0.663958],[-47.897163,-0.552474],[-47.823598,-0.666154],[-47.803746,-0.549978],[-47.70349,-0.534923],[-47.608786,-0.697048],[-47.578962,-0.581044],[-47.46873,-0.765314],[-47.481609,-0.621134],[-47.322076,-0.593842],[-47.037357,-0.730199],[-46.951454,-0.73406]],[[-46.401363,-0.952301],[-46.401363,-0.952301]],[[-46.075076,-1.066854],[-46.075076,-1.066854]],[[-47.034094,-0.695061],[-47.034094,-0.695061]],[[-46.375097,-0.995855],[-46.375097,-0.995855]],[[-47.843037,-0.662354],[-47.843037,-0.662354]],[[-46.444238,-1.009881],[-46.444238,-1.009881]],[[-46.326679,-0.95029],[-46.326679,-0.95029]],[[-46.607768,-0.830816],[-46.607768,-0.830816]],[[-46.608153,-0.8589],[-46.608153,-0.8589]],[[-47.034742,-0.720384],[-47.034742,-0.720384]],[[-46.467967,-0.963936],[-46.467967,-0.963936]],[[-46.20639,-0.940794],[-46.20639,-0.940794]],[[-46.951454,-0.73406],[-46.951454,-0.73406]],[[-47.021708,-0.715428],[-47.021708,-0.715428]],[[-46.270059,-0.933488],[-46.270059,-0.933488]],[[-34.969063,-6.487837],[-34.961743,-6.639774],[-34.870366,-6.985029],[-34.793112,-7.154081],[-34.833574,-7.54883]],[[-34.833574,-7.54883],[-35.243274,-7.373984],[-35.420759,-7.473664],[-35.502814,-7.455679],[-35.531188,-7.621264],[-35.657708,-7.697023],[-35.99758,-7.812906],[-36.070279,-7.780496],[-36.27065,-7.830157],[-36.42361,-7.81537],[-36.479699,-7.924352],[-36.610859,-7.94775],[-36.62817,-8.110641],[-36.99074,-8.302552],[-37.087856,-8.255057],[-37.151406,-8.008971],[-37.355461,-7.974525],[-37.138537,-7.745118],[-37.196343,-7.631487],[-36.983824,-7.481724],[-37.013495,-7.404402],[-37.23253,-7.274732],[-37.496522,-7.367137],[-37.532754,-7.472599],[-37.858093,-7.653228],[-38.076734,-7.830163],[-38.163636,-7.779548],[-38.286401,-7.829822],[-38.357099,-7.676781],[-38.593231,-7.753951],[-38.714717,-7.62152]],[[-38.564007,-6.355795],[-38.288334,-6.505226],[-38.0976,-6.5091],[-37.889868,-6.399746],[-37.774484,-6.231188],[-37.458555,-6.144615],[-37.254662,-6.027901],[-37.156526,-6.152054],[-37.37692,-6.343988],[-37.396491,-6.513817],[-37.468854,-6.534771],[-37.4843,-6.709643],[-37.283311,-6.69352],[-37.190263,-6.82497],[-37.001796,-6.709172],[-36.956723,-6.79008],[-36.834611,-6.730674],[-36.729776,-6.835996],[-36.765753,-6.935201],[-36.609366,-6.936436],[-36.506515,-6.812625],[-36.557345,-6.710372],[-36.442962,-6.56028],[-36.525418,-6.500765],[-36.49942,-6.357771],[-36.279444,-6.308456],[-36.249331,-6.436963],[-36.079565,-6.404793],[-36.004895,-6.480655],[-35.681502,-6.447527],[-35.145241,-6.552279],[-34.969063,-6.487837]],[[-34.861633,-6.982025],[-34.861633,-6.982025]],[[-34.833574,-7.54883],[-34.837298,-8.00571],[-34.940048,-8.351327],[-35.152043,-8.912951]],[[-41.357936,-8.707229],[-41.206266,-8.633038],[-40.980451,-8.398023],[-40.818942,-8.361959],[-40.782402,-8.254684],[-40.632635,-8.139152],[-40.543831,-7.964213],[-40.54336,-7.835174],[-40.65332,-7.781823],[-40.644026,-7.607345],[-40.704524,-7.458351],[-40.548081,-7.392315]],[[-32.400572,-3.836927],[-32.400572,-3.836927]],[[-32.400572,-3.836927],[-32.400572,-3.836927]],[[-45.72247,-10.154896],[-45.793325,-10.267263],[-45.945953,-10.258155]],[[-41.813728,-2.738959],[-41.632801,-2.886055],[-41.322306,-2.920971]],[[-48.09852,-25.310889],[-48.32223,-25.584887],[-48.414392,-25.623479],[-48.593948,-25.976585]],[[-48.593948,-25.976585],[-48.960277,-25.979268],[-49.19149,-26.008261],[-49.372427,-26.153106],[-49.554595,-26.236831],[-50.011056,-26.013509],[-50.182038,-26.078477],[-50.25103,-26.029735],[-50.332028,-26.134079],[-50.562909,-26.006041],[-50.731307,-26.202919],[-50.944197,-26.282015],[-50.999975,-26.229988],[-51.207891,-26.296617],[-51.297305,-26.41897],[-51.238865,-26.627891],[-51.434847,-26.687632],[-51.493757,-26.589145],[-52.010731,-26.566059],[-52.099184,-26.48233],[-52.678078,-26.35219],[-52.989824,-26.347346],[-53.090101,-26.390009],[-53.280969,-26.246701],[-53.496683,-26.302344],[-53.642566,-26.252258]],[[-53.642566,-26.252258],[-53.833534,-25.970366],[-53.822351,-25.792061],[-53.892053,-25.622098],[-54.122632,-25.570848],[-54.092647,-25.500294],[-54.369915,-25.593739],[-54.422238,-25.688193],[-54.593079,-25.591815],[-54.617326,-25.452526],[-54.432266,-25.130774],[-54.441297,-24.948607],[-54.324883,-24.660685],[-54.322487,-24.457846],[-54.257879,-24.356811],[-54.344697,-24.139573],[-54.287104,-24.06951]],[[-53.104669,-22.621452],[-52.971909,-22.570007],[-52.701168,-22.626991],[-52.579758,-22.568523],[-52.222989,-22.673825],[-52.125167,-22.51879],[-51.873011,-22.627763],[-51.559066,-22.696696],[-51.263287,-22.66857],[-51.154396,-22.752386],[-50.890392,-22.795326],[-50.709337,-22.95295],[-50.675534,-22.900033],[-50.504395,-22.94577],[-50.379894,-22.904446],[-50.182844,-22.95327],[-49.960888,-22.930382],[-49.911112,-23.050628],[-49.725947,-23.111113],[-49.589615,-23.435347],[-49.616649,-23.639102],[-49.549358,-23.703227],[-49.607548,-23.838884],[-49.51114,-23.925373],[-49.350188,-24.220303],[-49.200279,-24.343974],[-49.315499,-24.555006],[-49.311407,-24.663124],[-48.616137,-24.668171],[-48.498829,-24.73846],[-48.598,-25.01856],[-48.528101,-25.10029],[-48.410589,-24.979624],[-48.323867,-25.053882],[-48.251197,-24.978246],[-48.09852,-25.310889]],[[-44.512726,-23.292935],[-44.723999,-23.367601]],[[-44.723999,-23.367601],[-44.888492,-23.223999],[-44.792039,-22.981663],[-44.483949,-22.845959],[-44.245073,-22.802085],[-44.160514,-22.677824],[-44.226373,-22.604073],[-44.391238,-22.572905],[-44.508152,-22.640445],[-44.644919,-22.602062],[-44.808797,-22.404772]],[[-40.957184,-21.302959],[-41.063966,-21.486923],[-40.974581,-21.970144],[-41.241964,-22.146691],[-41.68861,-22.299597],[-41.997933,-22.608329],[-41.886592,-22.776935]],[[-41.886592,-22.776935],[-42.076339,-22.955152],[-42.585307,-22.932811],[-43.0515,-22.982245],[-43.136848,-22.902844],[-43.031748,-22.692003],[-43.215046,-22.726938],[-43.23788,-22.861561]],[[-43.23788,-22.861561],[-43.177351,-22.895572]],[[-43.177351,-22.895572],[-43.190704,-22.990381],[-43.535659,-23.051372],[-43.805014,-22.914171],[-43.976812,-22.931234],[-44.113556,-23.022618],[-44.362074,-23.01759],[-44.323242,-22.92965],[-44.598975,-23.063111],[-44.667646,-23.053639],[-44.721169,-23.201521],[-44.512726,-23.292935]],[[-43.359794,-22.993309],[-43.359794,-22.993309]],[[-44.233217,-23.089435],[-44.196561,-23.203563],[-44.373226,-23.182131],[-44.233217,-23.089435]],[[-43.827899,-23.057298],[-43.827899,-23.057298]],[[-43.182492,-22.781033],[-43.182492,-22.781033]],[[-43.913351,-22.93897],[-43.913351,-22.93897]],[[-43.23788,-22.861561],[-43.23788,-22.861561]],[[-43.929349,-23.006708],[-43.929349,-23.006708]],[[-44.583765,-23.20366],[-44.583765,-23.20366]],[[-44.045854,-22.999599],[-44.045854,-22.999599]],[[-44.687442,-23.164206],[-44.687442,-23.164206]],[[-41.698311,-22.410062],[-41.698311,-22.410062]],[[-44.512726,-23.292935],[-44.512726,-23.292935]],[[-43.10855,-22.758473],[-43.10855,-22.758473]],[[-43.10855,-22.758473],[-43.10855,-22.758473]],[[-43.177351,-22.895572],[-43.177351,-22.895572]],[[-44.644679,-23.073814],[-44.644679,-23.073814]],[[-43.860183,-22.949594],[-43.860183,-22.949594]],[[-41.686751,-22.401743],[-41.686751,-22.401743]],[[-44.583765,-23.20366],[-44.583765,-23.20366]],[[-44.576304,-23.185972],[-44.576304,-23.185972]],[[-43.909974,-22.983026],[-43.909974,-22.983026]],[[-44.639698,-23.228174],[-44.639698,-23.228174]],[[-41.886592,-22.776935],[-41.886592,-22.776935]],[[-44.129227,-23.035366],[-44.129227,-23.035366]],[[-43.913351,-22.93897],[-43.913351,-22.93897]],[[-43.514413,-23.065268],[-43.514413,-23.065268]],[[-43.148184,-23.059917],[-43.148184,-23.059917]],[[-44.639698,-23.228174],[-44.639698,-23.228174]],[[-43.943721,-23.023293],[-43.943721,-23.023293]],[[-44.692811,-23.215421],[-44.692811,-23.215421]],[[-43.953848,-23.004999],[-43.953848,-23.004999]],[[-43.207898,-23.040543],[-43.207898,-23.040543]],[[-44.672432,-23.099449],[-44.672432,-23.099449]],[[-43.953679,-23.025037],[-43.953679,-23.025037]],[[-43.860183,-22.949594],[-43.860183,-22.949594]],[[-44.675081,-23.111113],[-44.675081,-23.111113]],[[-37.251574,-4.832043],[-37.166727,-4.931755],[-36.881175,-4.948622],[-36.689467,-5.091868],[-36.437196,-5.067931],[-36.308044,-5.102526],[-35.948919,-5.043818],[-35.488629,-5.157973],[-35.260708,-5.480447],[-35.179179,-5.867842],[-35.106813,-6.005917],[-34.969063,-6.487837]],[[-66.458886,-9.87524],[-66.619301,-9.893602]],[[-60.360833,-13.299324],[-60.360833,-13.299324]],[[-60.70778,-13.692483],[-60.878948,-13.617166],[-60.987683,-13.499864],[-61.241719,-13.500222],[-61.469337,-13.554668],[-61.577519,-13.508609],[-61.840376,-13.54837],[-62.109282,-13.249678],[-62.177562,-13.11452],[-62.412571,-13.127107],[-62.608937,-13.042169],[-62.644815,-12.967263],[-62.793705,-12.994762],[-62.891422,-12.85842],[-63.007587,-12.837071],[-63.06153,-12.685283],[-63.18445,-12.626037],[-63.243262,-12.689948],[-63.400307,-12.635758],[-63.621392,-12.472406],[-63.785671,-12.427493],[-63.940354,-12.525985],[-64.415526,-12.440986],[-64.512324,-12.346591],[-64.505261,-12.229355],[-64.697384,-12.186898],[-64.837946,-12.010891],[-65.031394,-11.994531],[-65.088328,-11.708778],[-65.255353,-11.715067],[-65.22441,-11.515995],[-65.308626,-11.492864],[-65.362907,-11.146815],[-65.251116,-10.983501],[-65.356841,-10.802741],[-65.428905,-10.480558],[-65.289131,-10.209713],[-65.328951,-10.046116],[-65.288357,-9.867474],[-65.442909,-9.669737],[-65.552412,-9.834956],[-65.815143,-9.755233],[-66.023044,-9.811118],[-66.458886,-9.87524]],[[-66.458886,-9.87524],[-66.458886,-9.87524]],[[-63.371834,2.212058],[-63.406197,2.436114],[-63.780333,2.391582],[-64.055483,2.498056],[-63.982265,2.717657],[-64.233024,3.129941],[-64.251324,3.42832],[-64.185123,3.560054],[-64.28846,3.700055],[-64.471712,3.782067],[-64.809855,4.17505],[-64.779857,4.286994],[-64.559816,4.102308],[-64.171234,4.129219],[-63.958691,3.887863],[-63.858973,3.94802],[-63.712302,3.903696],[-63.680225,4.017368],[-63.498192,3.843075],[-63.449817,3.954871],[-63.205667,3.951764],[-63.203636,3.812035],[-63.060111,3.752274],[-62.984277,3.610056],[-62.834928,3.737826],[-62.743901,3.674912],[-62.765911,4.012844],[-62.53705,4.043664],[-62.462287,4.178291],[-62.147333,4.079498],[-61.983734,4.179663],[-61.818108,4.17037],[-61.7744,4.249856],[-61.559075,4.254601],[-61.512765,4.406575],[-61.351013,4.419147],[-61.321408,4.535125],[-60.995552,4.518033],[-60.947921,4.655812],[-60.742665,4.761675],[-60.58348,4.956123],[-60.696495,5.229208],[-60.327605,5.205878],[-60.214436,5.270972],[-59.996159,5.084921],[-60.02955,4.700879],[-60.163027,4.51216],[-59.872441,4.480403],[-59.675067,4.37276],[-59.724047,4.182787],[-59.525642,3.967165],[-59.66785,3.703472],[-59.869974,3.563058],[-59.805829,3.36499],[-59.954502,3.081785],[-59.98963,2.68657],[-59.89652,2.482439],[-59.906489,2.388833],[-59.738671,2.29289],[-59.745364,1.852312],[-59.686792,1.756407],[-59.533915,1.717588],[-59.28167,1.410779],[-59.151767,1.349115],[-58.918021,1.316903],[-58.894945,1.228228]],[[-52.043669,-31.57374],[-52.076353,-31.681458],[-52.225173,-31.751401],[-52.24951,-31.874916],[-52.112376,-31.942569],[-52.098151,-32.161508],[-52.30639,-32.361007],[-52.511475,-32.902703],[-52.661823,-33.160551],[-52.795174,-33.302021],[-53.372677,-33.74458],[-53.522682,-33.689303],[-53.510175,-33.535401],[-53.426332,-33.446009],[-53.469675,-33.25917],[-53.430421,-33.155555],[-53.261018,-33.107209],[-53.159375,-32.969168],[-53.15512,-32.839823],[-52.984717,-32.81627],[-52.833252,-32.91321],[-52.750015,-32.86162],[-52.585617,-32.52622],[-52.693135,-32.317625],[-52.621861,-32.143311],[-52.766482,-32.204345],[-52.819591,-32.333289],[-52.719017,-32.38062],[-52.942445,-32.47811],[-53.07578,-32.656163],[-53.431305,-32.565414],[-53.643716,-32.38316],[-53.745262,-32.078282],[-54.038904,-31.897293],[-54.107781,-31.909531],[-54.453865,-31.652141],[-54.5849,-31.457696],[-54.835256,-31.441428],[-55.005921,-31.267785],[-55.07324,-31.331873],[-55.237892,-31.259963],[-55.349819,-31.037379],[-55.57655,-30.840119],[-55.675827,-30.955495],[-55.869236,-31.069749],[-56.009416,-31.080787],[-56.02236,-30.786057],[-56.124111,-30.739178],[-56.190504,-30.603868],[-56.394109,-30.485388],[-56.460961,-30.384459],[-56.616199,-30.300816],[-56.806614,-30.103732],[-57.084495,-30.099622],[-57.201727,-30.284624],[-57.393939,-30.304323],[-57.566017,-30.256763],[-57.635461,-30.175666],[-57.481598,-30.123253],[-57.345234,-30.002758],[-57.327141,-29.87985],[-57.100973,-29.748991],[-56.705141,-29.36133],[-56.588854,-29.119621],[-56.413467,-29.07074],[-56.299709,-28.813199],[-56.18883,-28.771879],[-56.001999,-28.598862],[-56.010432,-28.507076],[-55.885503,-28.479628],[-55.871644,-28.358517],[-55.690618,-28.416267],[-55.667246,-28.340571],[-55.780714,-28.253416],[-55.444488,-28.09625],[-55.383098,-27.982944],[-55.195809,-27.856217],[-55.13614,-27.894777],[-54.93608,-27.772063],[-54.814945,-27.532299],[-54.774409,-27.585222],[-54.535499,-27.50308],[-54.406418,-27.404529],[-54.284147,-27.447064],[-54.184048,-27.264783],[-54.077486,-27.296804],[-53.952961,-27.15223],[-53.833833,-27.16934]],[[-53.833833,-27.16934],[-53.63451,-27.218553],[-53.382655,-27.095937],[-53.318255,-27.194741],[-53.196032,-27.191191],[-53.075751,-27.103463],[-52.936835,-27.197894],[-52.862322,-27.169088],[-52.691453,-27.282839],[-52.659212,-27.237655],[-52.305928,-27.316955],[-52.107389,-27.309199],[-51.961475,-27.374331],[-51.853843,-27.517923],[-51.698628,-27.480215],[-51.386217,-27.623433],[-51.273129,-27.749068],[-50.928445,-27.968604],[-50.901402,-28.086719],[-50.562393,-28.414046],[-50.158962,-28.459573],[-49.855067,-28.445055],[-49.727809,-28.517952],[-49.691757,-28.624663],[-49.934882,-28.727607],[-49.95607,-29.06698]],[[-49.95607,-29.06698],[-49.967653,-29.115559]],[[-49.967653,-29.115559],[-50.092698,-29.221853]],[[-50.092698,-29.221853],[-49.962461,-29.198392],[-49.711305,-29.325448]],[[-49.711305,-29.325448],[-49.934168,-29.624208],[-50.117374,-29.975247],[-50.308324,-30.455386],[-50.768792,-31.109558],[-51.469869,-31.725854],[-51.817231,-31.910374],[-52.074437,-32.142288],[-52.026173,-31.915332],[-52.062022,-31.815743],[-51.907931,-31.86856],[-51.692829,-31.782036],[-51.462109,-31.543858]],[[-51.462109,-31.543858],[-51.237768,-31.457622],[-51.158602,-31.281143],[-51.168123,-31.066838],[-51.103078,-31.098855],[-50.954045,-31.002661],[-50.910755,-30.905242],[-50.753112,-30.818267],[-50.679009,-30.608648],[-50.705114,-30.347249],[-50.592631,-30.399796],[-50.542133,-30.252023],[-50.658359,-30.199399],[-50.672716,-30.296119],[-50.906452,-30.322771],[-50.929504,-30.435251],[-51.054701,-30.391404],[-51.102128,-30.253869]],[[-51.102128,-30.253869],[-51.157841,-30.261959]],[[-51.157841,-30.261959],[-51.289748,-30.001706],[-51.293126,-30.303492],[-51.142259,-30.470535]],[[-51.142259,-30.470535],[-51.199921,-30.407902],[-51.297915,-30.55879],[-51.295483,-30.750499]],[[-51.295483,-30.750499],[-51.386426,-30.6545],[-51.368619,-30.873673],[-51.496093,-30.914872],[-51.460711,-31.096038],[-51.628123,-31.152433],[-51.62774,-31.264926],[-51.918857,-31.310252],[-52.043669,-31.57374]],[[-51.295483,-30.750499],[-51.295483,-30.750499]],[[-50.092698,-29.221853],[-50.092698,-29.221853]],[[-51.142259,-30.470535],[-51.142259,-30.470535]],[[-49.95607,-29.06698],[-49.95607,-29.06698]],[[-51.294501,-30.053588],[-51.294501,-30.053588]],[[-52.101693,-31.801463],[-52.101693,-31.801463]],[[-53.418556,-33.129563],[-53.418556,-33.129563]],[[-49.967653,-29.115559],[-49.967653,-29.115559]],[[-51.462109,-31.543858],[-51.462109,-31.543858]],[[-51.157841,-30.261959],[-51.157841,-30.261959]],[[-51.102128,-30.253869],[-51.102128,-30.253869]],[[-52.043669,-31.57374],[-52.043669,-31.57374]],[[-51.191486,-30.234579],[-51.191486,-30.234579]],[[-48.593948,-25.976585],[-48.580494,-26.164765],[-48.492428,-26.218684],[-48.686571,-26.668976],[-48.584956,-26.783022],[-48.642705,-26.901482],[-48.611794,-27.099816],[-48.529688,-27.180878],[-48.539683,-27.297944],[-48.646663,-27.482517],[-48.573511,-27.889596],[-48.598316,-28.030248],[-48.809281,-28.605008],[-49.183666,-28.799833],[-49.420882,-28.996079],[-49.711305,-29.325448]],[[-50.092698,-29.221853],[-50.092698,-29.221853]],[[-49.967653,-29.115559],[-49.967653,-29.115559]],[[-49.95607,-29.06698],[-49.95607,-29.06698]],[[-53.833833,-27.16934],[-53.661775,-26.862286],[-53.752614,-26.719561],[-53.642566,-26.252258]],[[-48.41035,-27.38943],[-48.412766,-27.572883],[-48.569631,-27.835713],[-48.50811,-27.547609],[-48.539001,-27.490364],[-48.41035,-27.38943]],[[-48.565368,-27.477238],[-48.565368,-27.477238]],[[-36.393427,-10.498067],[-36.619989,-10.589009],[-36.936846,-10.830874],[-37.260054,-11.287577],[-37.342503,-11.443448]],[[-44.723999,-23.367601],[-44.907363,-23.333195],[-45.066969,-23.493577],[-45.429742,-23.655282],[-45.404629,-23.819589],[-45.902681,-23.764979],[-46.118321,-23.835053],[-46.185322,-23.986449],[-46.324651,-23.972849],[-46.604759,-24.08918],[-47.000185,-24.329276],[-47.003197,-24.408814],[-47.616293,-24.791698],[-47.909456,-25.052881],[-47.942848,-25.173084],[-48.09852,-25.310889]],[[-45.320935,-23.914938],[-45.461657,-23.887757],[-45.341001,-23.727052],[-45.233872,-23.775947],[-45.320935,-23.914938]],[[-45.077848,-23.535286],[-45.077848,-23.535286]],[[-45.139775,-23.799866],[-45.139775,-23.799866]],[[-45.163376,-23.566709],[-45.163376,-23.566709]],[[-45.018595,-23.754241],[-45.018595,-23.754241]],[[-45.779012,-23.867611],[-45.779012,-23.867611]],[[-45.293576,-23.596097],[-45.293576,-23.596097]],[[-45.018595,-23.754241],[-45.018595,-23.754241]],[[-45.725934,-23.800637],[-45.725934,-23.800637]],[[-45.526033,-23.849328],[-45.526033,-23.849328]],[[-46.906652,-24.389684],[-46.906652,-24.389684]],[[-46.909409,-24.373831],[-46.909409,-24.373831]],[[-45.033318,-23.548712],[-45.033318,-23.548712]],[[-44.851379,-23.399177],[-44.851379,-23.399177]],[[-44.948537,-23.38621],[-44.948537,-23.38621]],[[-46.979876,-24.37096],[-46.979876,-24.37096]],[[-47.913506,-25.166847],[-47.913506,-25.166847]],[[-45.228607,-23.813211],[-45.228607,-23.813211]],[[-45.320935,-23.914938],[-45.320935,-23.914938]],[[-45.714043,-23.790181],[-45.714043,-23.790181]],[[-45.276823,-23.853116],[-45.276823,-23.853116]],[[-45.297189,-23.920585],[-45.297189,-23.920585]],[[-45.156356,-23.830774],[-45.156356,-23.830774]],[[-45.671725,-23.804677],[-45.671725,-23.804677]],[[-47.031021,-8.98549],[-47.031021,-8.98549]]]}